#dP2026  5 19  0  0  0.00000000     289 d+D   IGc20 FIT AIUB
## 2419 172800.00000000   300.00000000 61179 0.0000000000000
+  115   G01G02G03G04G05G06G07G08G09G10G11G12G13G14G15G16G17
+        G18G19G20G21G22G23G24G25G26G27G29G30G31G32R02R03R04
+        R05R06R07R08R09R11R12R14R15R16R17R18R19R20R21R22R24
+        R26E02E03E04E05E06E07E08E09E10E11E12E13E14E15E16E18
+        E19E21E23E25E26E27E28E29E30E31E32E33E34E36C06C07C08
+        C11C12C13C14C19C20C21C22C23C24C25C26C27C28C29C30C31
+        C32C33C34C35C36C37C38C39C41C42J02J03J04  0  0  0  0
++         5  5  5  5  5  5  5  5  5  5  5  5  5  5  5  5  5
++         5  5  5  5  5  5  5  5  5  5  5  5  5  5  5  5  5
++         5  5  5  5  5  5  5  5  5  5  5  5  5  5  5  5  5
++         5  5  5  5  5  5  5  5  5  5  5  5  5  5  5  5  5
++         5  5  5  5  5  5  5  5  5  5  5  5  5  5  5  5  5
++         5  5  5  5  5  5  5  5  5  5  5  5  5  5  5  5  5
++         5  5  5  5  5  5  5  5  5  5  5  5  5  0  0  0  0
%c M  cc GPS ccc cccc cccc cccc cccc ccccc ccccc ccccc ccccc
%c cc cc ccc ccc cccc cccc cccc cccc ccccc ccccc ccccc ccccc
%f  1.2500000  1.025000000  0.00000000000  0.000000000000000
%f  0.0000000  0.000000000  0.00000000000  0.000000000000000
%i    0    0    0    0      0      0      0      0         0
%i    0    0    0    0      0      0      0      0         0
/* Center for Orbit Determination in Europe (CODE)                              
/* MGEX orbits and clocks for year-day 2026-1390                                
/* Middle day of a 3-day long-arc multi-GNSS solution                           
/* Systems considered: GPS/GLONASS/Galileo/BeiDou/QZSS                          
/* Product reference - DOI 10.48620/97775                                       
/* PCV:IGS20_2417 OL/AL:FES2014b NONE     YN ORB:CoN CLK:CoN                    
*  2026  5 19  9 20  0.00000000
PG01  13419.019546 -20835.088619  -9449.319020    270.863405
PG02  17735.828702 -19235.945211   2367.271561    101.681179
PG03   6400.793245 -13277.274264 -22290.009415    458.142224
PG04   1891.087884 -23995.961167 -11000.918988     57.473528
PG05 -20191.886021   6632.897353  15777.554689   -233.144683
PG06 -16494.361765  -2938.848979 -20589.454275   -601.852297
PG07  -1223.703510 -18628.711705  19373.795181   -186.347609
PG08   9345.315556 -15525.385111  19060.851475    439.971260
PG09  -6925.136716 -25562.217091  -1492.491232    748.327406
PG10  22930.273006  11436.228382   7892.670501   -584.156615
PG11 -21790.252227   9004.201779 -12098.615078   -335.369834
PG12  -9339.625057  12858.331006 -21567.991075   -607.575697
PG13  -8944.764092  13282.267165 -21181.124540    310.005001
PG14 -20964.830978 -13196.235606  10093.739085    746.662009
PG15  -6482.010069  17353.735977  18470.584590    412.851322
PG16  23897.525791   -368.319560  11637.861308    265.803630
PG17 -12688.445641 -19996.101426 -11380.050823   -138.148160
PG18   2613.590536  16923.177977  20276.205359   -348.918010
PG19 -15432.897721 -11172.639431 -18786.584646    700.127464
PG20 -12555.979283   9808.392834  21317.604510    160.792032
PG21 -25112.694146   -624.897520   8686.093030    413.908696
PG22 -23431.392800 -11457.029867   4347.502030      0.458864
PG23  13347.463439  14995.526728  17609.310538    649.128773
PG24 -14345.046331  21992.121376  -2892.013649     18.276223
PG25   5167.242274  16412.101169 -20677.713131    421.524765
PG26  26536.657667   3550.708728    479.004763   -366.574745
PG27  14738.912202  -3886.279573  21389.544557      0.128528
PG29   3562.647042  26107.193901  -2585.268399   -318.406491
PG30 -12543.517920  -9781.166573  21488.208872    227.929231
PG31  21181.979763  -5311.265678 -15609.495860   -148.160107
PG32  15310.806666  15548.899543 -14989.172047     62.074031
PR02  -6223.467830   9671.116659  22822.733523     12.204359
PR03   7255.992782  21306.134950  12104.710701     13.124491
PR04  15190.082832  19911.083439  -4844.403412    356.016250
PR05  15149.797545   7995.891124 -18894.932565    168.288036
PR06   7135.167458  -8553.298814 -22939.731451    -19.832931
PR07  -7143.441263 -21216.543958 -12141.668684    121.613348
PR08 -15589.268380 -19471.582340   5321.722581     -4.787101
PR09  18507.218351  -9242.975548  14886.437082    326.913371
PR11 -15901.991816  -7767.620096  18394.354241     10.799917
PR12 -25395.561237    373.784132   2360.735649     69.240202
PR14  -1850.626190  11248.484234 -22802.400048     32.580230
PR15  16458.365284   7648.302447 -17893.876967     56.124780
PR16  25393.018319   -473.564621  -2113.060201     49.364254
PR17  -5605.510029  22294.534759  11004.518296    297.062852
PR18   4519.661293  12740.215446  21649.375832    262.112705
PR19  13957.481534  -4613.125395  20852.302275     47.844591
PR20  14827.999165 -19275.846436   7650.218070    232.512509
PR21   8000.151889 -22965.662068  -7756.657031   -308.905119
PR22  -5801.012805 -11500.456255 -21994.853737    126.417230
PR24 -13863.250142  20161.186637  -7163.268892   -166.321757
PR26 -14675.643211 -20810.459542   1732.850738 999999.999999
PE02  20979.833574  18084.496248 -10460.543192     41.084301
PE03  11360.353930  23840.710065 -13348.052593    -17.942762
PE04 -16905.846020  -4370.380761  23911.862265   -151.743710
PE05   -801.710366  29163.090406   4952.423281     35.485601
PE06 -16038.996829   7167.443626  23811.680064   -273.113972
PE07  12540.027626 -17387.880653 -20416.595044    -64.739088
PE08  16748.046659   4529.678444 -23979.847304   -148.392779
PE09 -12485.905600  17297.692433  20508.583937   -294.552981
PE10 -26009.544619  11816.717617  -7756.272058   -792.964052
PE11 -23273.462496  18098.834108   2715.408248   5056.451653
PE12 -24686.352020   4546.228956 -15713.982557    -46.422312
PE13  23469.994211 -17879.727412  -2298.634722    -55.083211
PE14 -15543.773234   8606.240082 -19639.982479   3651.278091
PE15  24425.238155  -4050.433419  16214.312404   -259.378181
PE16 -17577.160650   8753.598387 -22150.658134    -32.965317
PE18   7203.334291 -26563.271649  14613.966348   2795.898388
PE19 -10669.563723 -24530.664621  12699.337462   2967.912825
PE21  -1904.736866 -18605.243948  22944.415393   -743.398730
PE23 -21070.875775 -17944.661029  10509.101008    -35.497431
PE25   1284.629270  18441.594345 -23112.735924     21.940952
PE26   8566.921533 -21022.754312 -18991.660296    308.549081
PE27  18503.499679  -7982.419820  21684.744101   -992.602509
PE28 -15685.446278 -14715.726559  20333.129683    -44.455707
PE29    750.339940 -29199.616700  -4810.227527   -207.582318
PE30  27617.547578   6680.101258   8301.324145  -1060.307029
PE31 -27676.070910  -7194.237555  -7637.061095   -142.197661
PE32  15671.313927  14756.654262 -20310.464484     16.984879
PE33 -10794.259796 -12012.394487 -24806.491436    -15.409078
PE34  10977.826121  11874.005876  24785.662837   -254.976941
PE36  -8895.794667  20926.149889  18955.126548   -567.593801
PC06 -11118.657162  19154.884058  35949.134719    289.706554
PC07 -25454.368765  31161.530706 -12896.368225    -24.425420
PC08  -9205.622481  36645.109615 -18302.726872   -233.233255
PC11  -6868.390632 -20731.598683 -17365.685758   -671.866435
PC12 -16285.663995 -22081.791450  -5133.789355    642.691903
PC13  16158.604399   2259.991776  22626.168059   -922.734786
PC14    921.799278  20053.432390  19374.924899   -348.786359
PC19 -20905.396907 -17922.104182   4698.349683   -941.831659
PC20 -11010.893136 -22943.889698 -11505.489405   -909.949970
PC21  -7128.366631  14394.190780  22819.112974   -853.507406
PC22 -19745.986684  -2313.828654  19588.019367    453.671812
PC23  27368.201150  -4986.127416  -2257.401856   -460.020366
PC24    352.823879  16633.790333 -22413.073022   -340.434029
PC25  21112.121073   6972.583188 -16889.111011    863.715212
PC26 -17467.353913  15830.057334 -14930.353912   -642.053740
PC27  13274.364769 -22909.669045   8790.325842    634.604665
PC28  17429.241897  -9645.925777  19543.182854    518.948492
PC29 -12118.665520 -13891.855445 -20961.116074    605.651292
PC30   -253.696225 -26352.875134  -9168.621371    451.248429
PC31 -12350.434468  23460.707382  -8772.051957    804.884458
PC32   7038.285567 -14438.185056 -22816.523643   -916.786719
PC33  20982.366795  17786.762297  -4601.732801   -915.318669
PC34   -201.349842  26548.790427   8596.566198    949.137020
PC35 -17243.703290   8209.400180 -20381.886682   -392.066328
PC36 -20547.004187  -7791.223905  17214.890541    280.301244
PC37  18740.932844 -15102.599671  14157.710027   -948.772652
PC38  12920.239364  12511.879153  21321.376349    138.574075
PC39 -27395.361903   4496.878518   2696.485293   -861.433013
PC41  20270.256425   3425.208675 -18802.333992   -940.862780
PC42   8949.311467  22651.064644  13607.266762   -892.628566
PJ02 -23807.088994  18461.397783 -24728.080562     -0.209265
PJ03 -29513.707803  30151.632429   7678.882066     -4.029604
PJ04 -25549.162146  26173.761607  26512.683626      0.506168
EOF
